{"type": "FeatureCollection", "features": [ {"type": "Feature", "properties": {"norad_id": 41836, "name": "HIMAWARI-9", "group": "weather", "lat": 0.03401057967849092, "lon": 31.550185805646578, "alt_km": 35782.45018514726, "timestamp": "2025-12-19T10:50:00.834536+00:00", "meta": {"OBJECT_NAME": "HIMAWARI-9", "OBJECT_ID": "2016-064A", "EPOCH": "2025-12-18T18:07:09.740640", "MEAN_MOTION": 1.00269108, "ECCENTRICITY": 0.00019267, "INCLINATION": 0.02, "RA_OF_ASC_NODE": 341.613, "ARG_OF_PERICENTER": 353.5172, "MEAN_ANOMALY": 165.0202, "EPHEMERIS_TYPE": 0, "CLASSIFICATION_TYPE": "U", "NORAD_CAT_ID": 41836, "ELEMENT_SET_NO": 999, "REV_AT_EPOCH": 3340, "BSTAR": 0, "MEAN_MOTION_DOT": 0, "MEAN_MOTION_DDOT": 0}, "tle": {"line1": "1 41836U 16064A   25352.75497385  .00000000  00000+0  00000+0 0  9992", "line2": "2 41836   0.0200 341.6130 0001926 353.5172 165.0202  1.00269108 33401"}}, "geometry": {"type": "Point", "coordinates": [31.550185805646578, 0.03401057967849092]}}, {"type": "Feature", "properties": {"norad_id": 41866, "name": "GOES 16", "group": "weather", "lat": 0.057945343812405535, "lon": 146.09085261643128, "alt_km": 35792.20403560722, "timestamp": "2025-12-19T10:50:00.834553+00:00", "meta": {"OBJECT_NAME": "GOES 16", "OBJECT_ID": "2016-071A", "EPOCH": "2025-12-18T23:04:13.447200", "MEAN_MOTION": 1.00272238, "ECCENTRICITY": 0.00030276, "INCLINATION": 0.0716, "RA_OF_ASC_NODE": 103.6373, "ARG_OF_PERICENTER": 161.62, "MEAN_ANOMALY": 63.9433, "EPHEMERIS_TYPE": 0, "CLASSIFICATION_TYPE": "U", "NORAD_CAT_ID": 41866, "ELEMENT_SET_NO": 999, "REV_AT_EPOCH": 3329, "BSTAR": 0, "MEAN_MOTION_DOT": -6.6e-07, "MEAN_MOTION_DDOT": 0}, "tle": {"line1": "1 41866U 16071A   25352.96126675 -.00000066  00000+0  00000+0 0  9990", "line2": "2 41866   0.0716 103.6373 0003027 161.6200  63.9433  1.00272238 33292"}}, "geometry": {"type": "Point", "coordinates": [146.09085261643128, 0.057945343812405535]}}, {"type": "Feature", "properties": {"norad_id": 41882, "name": "FENGYUN 4A", "group": "weather", "lat": -1.717401184370301, "lon": 14.582310155289585, "alt_km": 35804.02400049628, "timestamp": "2025-12-19T10:50:00.834566+00:00", "meta": {"OBJECT_NAME": "FENGYUN 4A", "OBJECT_ID": "2016-077A", "EPOCH": "2025-12-18T22:26:39.545088", "MEAN_MOTION": 1.00266947, "ECCENTRICITY": 0.00045017, "INCLINATION": 1.8645, "RA_OF_ASC_NODE": 82.3322, "ARG_OF_PERICENTER": 142.9261, "MEAN_ANOMALY": 322.9561, "EPHEMERIS_TYPE": 0, "CLASSIFICATION_TYPE": "U", "NORAD_CAT_ID": 41882, "ELEMENT_SET_NO": 999, "REV_AT_EPOCH": 3312, "BSTAR": 0, "MEAN_MOTION_DOT": -3.34e-06, "MEAN_MOTION_DDOT": 0}, "tle": {"line1": "1 41882U 16077A   25352.93517992 -.00000334  00000+0  00000+0 0  9995", "line2": "2 41882   1.8645  82.3322 0004501 142.9261 322.9561  1.00266947 33126"}}, "geometry": {"type": "Point", "coordinates": [14.582310155289585, -1.717401184370301]}}, {"type": "Feature", "properties": {"norad_id": 41884, "name": "CYGFM05", "group": "weather", "lat": 12.599861303317212, "lon": 21.939898794607448, "alt_km": 425.51082721884904, "timestamp": "2025-12-19T10:50:00.834578+00:00", "meta": {"OBJECT_NAME": "CYGFM05", "OBJECT_ID": "2016-078A", "EPOCH": "2025-12-18T09:58:14.123136", "MEAN_MOTION": 15.47842846, "ECCENTRICITY": 0.00106743, "INCLINATION": 34.9607, "RA_OF_ASC_NODE": 10.0509, "ARG_OF_PERICENTER": 233.6199, "MEAN_ANOMALY": 126.3539, "EPHEMERIS_TYPE": 0, "CLASSIFICATION_TYPE": "U", "NORAD_CAT_ID": 41884, "ELEMENT_SET_NO": 999, "REV_AT_EPOCH": 50064, "BSTAR": 0.00032790971, "MEAN_MOTION_DOT": 0.000176, "MEAN_MOTION_DDOT": 0}, "tle": {"line1": "1 41884U 16078A   25352.41544124  .00017600  00000+0  32791-3 0  9997", "line2": "2 41884  34.9607  10.0509 0010674 233.6199 126.3539 15.47842846500645"}}, "geometry": {"type": "Point", "coordinates": [21.939898794607448, 12.599861303317212]}}, {"type": "Feature", "properties": {"norad_id": 41885, "name": "CYGFM04", "group": "weather", "lat": -17.529459289264263, "lon": -49.041459471426826, "alt_km": 412.34633582290917, "timestamp": "2025-12-19T10:50:00.834589+00:00", "meta": {"OBJECT_NAME": "CYGFM04", "OBJECT_ID": "2016-078B", "EPOCH": "2025-12-18T08:42:07.613568", "MEAN_MOTION": 15.50592103, "ECCENTRICITY": 0.00097951, "INCLINATION": 34.9357, "RA_OF_ASC_NODE": 345.0092, "ARG_OF_PERICENTER": 258.3905, "MEAN_ANOMALY": 101.5718, "EPHEMERIS_TYPE": 0, "CLASSIFICATION_TYPE": "U", "NORAD_CAT_ID": 41885, "ELEMENT_SET_NO": 999, "REV_AT_EPOCH": 50081, "BSTAR": 0.00035246337, "MEAN_MOTION_DOT": 0.00020857, "MEAN_MOTION_DDOT": 0}, "tle": {"line1": "1 41885U 16078B   25352.36258812  .00020857  00000+0  35246-3 0  9994", "line2": "2 41885  34.9357 345.0092 0009795 258.3905 101.5718 15.50592103500812"}}, "geometry": {"type": "Point", "coordinates": [-49.041459471426826, -17.529459289264263]}}, {"type": "Feature", "properties": {"norad_id": 41886, "name": "CYGFM02", "group": "weather", "lat": 8.519320402076811, "lon": -11.510696708338019, "alt_km": 410.66664724745715, "timestamp": "2025-12-19T10:50:00.834601+00:00", "meta": {"OBJECT_NAME": "CYGFM02", "OBJECT_ID": "2016-078C", "EPOCH": "2025-12-18T10:04:08.517792", "MEAN_MOTION": 15.51990964, "ECCENTRICITY": 0.00114697, "INCLINATION": 34.9446, "RA_OF_ASC_NODE": 342.8876, "ARG_OF_PERICENTER": 258.9648, "MEAN_ANOMALY": 100.9785, "EPHEMERIS_TYPE": 0, "CLASSIFICATION_TYPE": "U", "NORAD_CAT_ID": 41886, "ELEMENT_SET_NO": 999, "REV_AT_EPOCH": 50095, "BSTAR": 0.00035378493, "MEAN_MOTION_DOT": 0.00022034, "MEAN_MOTION_DDOT": 0}, "tle": {"line1": "1 41886U 16078C   25352.41954303  .00022034  00000+0  35378-3 0  9994", "line2": "2 41886  34.9446 342.8876 0011469 258.9648 100.9785 15.51990964500958"}}, "geometry": {"type": "Point", "coordinates": [-11.510696708338019, 8.519320402076811]}}, {"type": "Feature", "properties": {"norad_id": 41887, "name": "CYGFM01", "group": "weather", "lat": 34.40025150653343, "lon": 84.28842221339899, "alt_km": 421.206292395168, "timestamp": "2025-12-19T10:50:00.834611+00:00", "meta": {"OBJECT_NAME": "CYGFM01", "OBJECT_ID": "2016-078D", "EPOCH": "2025-12-18T11:16:35.201568", "MEAN_MOTION": 15.48428665, "ECCENTRICITY": 0.00103113, "INCLINATION": 34.9437, "RA_OF_ASC_NODE": 12.0044, "ARG_OF_PERICENTER": 226.5679, "MEAN_ANOMALY": 133.4185, "EPHEMERIS_TYPE": 0, "CLASSIFICATION_TYPE": "U", "NORAD_CAT_ID": 41887, "ELEMENT_SET_NO": 999, "REV_AT_EPOCH": 50059, "BSTAR": 0.00031117974, "MEAN_MOTION_DOT": 0.00017044, "MEAN_MOTION_DDOT": 0}, "tle": {"line1": "1 41887U 16078D   25352.46985187  .00017044  00000+0  31118-3 0  9997", "line2": "2 41887  34.9437  12.0044 0010311 226.5679 133.4185 15.48428665500597"}}, "geometry": {"type": "Point", "coordinates": [84.28842221339899, 34.40025150653343]}}, {"type": "Feature", "properties": {"norad_id": 41888, "name": "CYGFM08", "group": "weather", "lat": 12.096114421294816, "lon": 150.6245939567869, "alt_km": 416.2499440749307, "timestamp": "2025-12-19T10:50:00.834623+00:00", "meta": {"OBJECT_NAME": "CYGFM08", "OBJECT_ID": "2016-078E", "EPOCH": "2025-12-18T09:24:52.116768", "MEAN_MOTION": 15.49646932, "ECCENTRICITY": 0.00120006, "INCLINATION": 34.9468, "RA_OF_ASC_NODE": 355.4372, "ARG_OF_PERICENTER": 248.6935, "MEAN_ANOMALY": 111.2506, "EPHEMERIS_TYPE": 0, "CLASSIFICATION_TYPE": "U", "NORAD_CAT_ID": 41888, "ELEMENT_SET_NO": 999, "REV_AT_EPOCH": 50081, "BSTAR": 0.00034719619, "MEAN_MOTION_DOT": 0.00019881, "MEAN_MOTION_DDOT": 0}, "tle": {"line1": "1 41888U 16078E   25352.39226987  .00019881  00000+0  34720-3 0  9999", "line2": "2 41888  34.9468 355.4372 0012000 248.6935 111.2506 15.49646932500813"}}, "geometry": {"type": "Point", "coordinates": [150.6245939567869, 12.096114421294816]}}, {"type": "Feature", "properties": {"norad_id": 41890, "name": "CYGFM07", "group": "weather", "lat": 11.0414761919314, "lon": 141.2146685674529, "alt_km": 415.99706066045565, "timestamp": "2025-12-19T10:50:00.834635+00:00", "meta": {"OBJECT_NAME": "CYGFM07", "OBJECT_ID": "2016-078G", "EPOCH": "2025-12-18T09:24:57.659328", "MEAN_MOTION": 15.50233776, "ECCENTRICITY": 0.00101264, "INCLINATION": 34.9484, "RA_OF_ASC_NODE": 344.3859, "ARG_OF_PERICENTER": 263.9278, "MEAN_ANOMALY": 96.029, "EPHEMERIS_TYPE": 0, "CLASSIFICATION_TYPE": "U", "NORAD_CAT_ID": 41890, "ELEMENT_SET_NO": 999, "REV_AT_EPOCH": 50083, "BSTAR": 0.00033098581, "MEAN_MOTION_DOT": 0.00019332, "MEAN_MOTION_DDOT": 0}, "tle": {"line1": "1 41890U 16078G   25352.39233402  .00019332  00000+0  33099-3 0  9991", "line2": "2 41890  34.9484 344.3859 0010126 263.9278  96.0290 15.50233776500830"}}, "geometry": {"type": "Point", "coordinates": [141.2146685674529, 11.0414761919314]}}, {"type": "Feature", "properties": {"norad_id": 41891, "name": "CYGFM03", "group": "weather", "lat": -4.115298315837894, "lon": -26.552213436217716, "alt_km": 415.72925445822784, "timestamp": "2025-12-19T10:50:00.834646+00:00", "meta": {"OBJECT_NAME": "CYGFM03", "OBJECT_ID": "2016-078H", "EPOCH": "2025-12-18T10:08:04.475328", "MEAN_MOTION": 15.50133143, "ECCENTRICITY": 0.00096864, "INCLINATION": 34.9439, "RA_OF_ASC_NODE": 346.1113, "ARG_OF_PERICENTER": 252.1758, "MEAN_ANOMALY": 107.7907, "EPHEMERIS_TYPE": 0, "CLASSIFICATION_TYPE": "U", "NORAD_CAT_ID": 41891, "ELEMENT_SET_NO": 999, "REV_AT_EPOCH": 50081, "BSTAR": 0.00034490402, "MEAN_MOTION_DOT": 0.00020074, "MEAN_MOTION_DDOT": 0}, "tle": {"line1": "1 41891U 16078H   25352.42227402  .00020074  00000+0  34490-3 0  9990", "line2": "2 41891  34.9439 346.1113 0009686 252.1758 107.7907 15.50133143500816"}}, "geometry": {"type": "Point", "coordinates": [-26.552213436217716, -4.115298315837894]}}]}